26081,GLOBALSTAR M063,2000,121.4,-1.0,-,52.0,Inactive,0,LEO,USA,Globalstar,Unknown,Unknown,Delta,1 26081U 00008A   23253.10074275 -.00000083  00000+0 -87427-7 0  9993,2 26081  51.9990  13.0902 0005014 150.3415  19.4004 11.86143994 80974,11.86143994,0.0005014,LEO
26082,GLOBALSTAR M062,2000,115.81,-1.0,-,51.98,Inactive,0,LEO,USA,Globalstar,Unknown,Unknown,Delta,1 26082U 00008B   23253.34530785  .00000034  00000+0  94370-3 0  9998,2 26082  51.9833 194.9252 0006500 169.1943   0.6095 12.43412314 78779,12.43412314,0.00065,LEO
26083,GLOBALSTAR M060,2000,118.26,-1.0,-,52.0,Inactive,0,LEO,USA,Globalstar,Unknown,Unknown,Delta,1 26083U 00008C   23252.62238237 -.00000100  00000+0 -93277-4 0  9998,2 26083  52.0024  65.5893 0002475 251.6241 183.6618 12.17616356 73606,12.17616356,0.0002475,LEO
26084,GLOBALSTAR M064,2000,121.16,-1.0,-,52.0,Inactive,0,LEO,USA,Globalstar,Unknown,Unknown,Delta,1 26084U 00008D   23253.08426714 -.00000077  00000+0  95531-4 0  9996,2 26084  52.0018 119.5835 0000732 274.9402  85.1347 11.88509452 90381,11.88509452,7.32e-05,LEO
31571,GLOBALSTAR M065,2007,114.11,450.0,P,51.99,Active,1,LEO,Kazakhstan,Globalstar,Commercial,Communications,Soyuz,1 31571U 07020A   23253.40583821 -.00000085  00000+0  10613-3 0  9999,2 31571  51.9916  31.7159 0009618 322.7721  76.0314 12.61951940752175,12.6195194,0.0009618,LEO
31573,GLOBALSTAR M069,2007,114.08,450.0,+,52.0,Active,1,LEO,Kazakhstan,Globalstar,Commercial,Communications,Soyuz,1 31573U 07020C   23253.22563341 -.00000074  00000+0  16813-3 0  9992,2 31573  51.9979 348.4645 0001005 126.4507 249.5360 12.62280190752909,12.6228019,0.0001005,LEO
31574,GLOBALSTAR M072,2007,114.08,450.0,+,52.01,Active,1,LEO,Kazakhstan,Globalstar,Commercial,Communications,Soyuz,1 31574U 07020D   23252.82528612 -.00000090  00000+0  74101-4 0  9993,2 31574  52.0077  85.3658 0001216  62.5846 312.7959 12.62265387751358,12.62265387,0.0001216,LEO
31576,GLOBALSTAR M071,2007,114.08,450.0,+,52.01,Active,1,LEO,Kazakhstan,Globalstar,Commercial,Communications,Soyuz,1 31576U 07020F   23252.53895476 -.00000079  00000+0  13682-3 0  9991,2 31576  52.0098 355.5003 0001488 126.3882 247.2790 12.62267306414072,12.62267306,0.0001488,LEO
